{"type": "FeatureCollection", "features": [ {"type": "Feature", "properties": {"norad_id": 29853, "name": "FENGYUN 1C DEB", "group": "fengyun-1c-debris", "lat": -38.43526433947262, "lon": 116.56910369996392, "alt_km": 946.3233703987162, "timestamp": "2025-12-14T07:33:19.749216+00:00", "meta": {"OBJECT_NAME": "FENGYUN 1C DEB", "OBJECT_ID": "1999-025EX", "EPOCH": "2025-12-13T07:37:28.782336", "MEAN_MOTION": 13.93799673, "ECCENTRICITY": 0.01615998, "INCLINATION": 98.4573, "RA_OF_ASC_NODE": 108.8753, "ARG_OF_PERICENTER": 220.9659, "MEAN_ANOMALY": 137.9272, "EPHEMERIS_TYPE": 0, "CLASSIFICATION_TYPE": "U", "NORAD_CAT_ID": 29853, "ELEMENT_SET_NO": 999, "REV_AT_EPOCH": 95677, "BSTAR": 0.0021553442, "MEAN_MOTION_DOT": 3.125e-05, "MEAN_MOTION_DDOT": 0}, "tle": {"line1": "1 29853U 99025EX  25347.31769424  .00003125  00000+0  21553-2 0  9997", "line2": "2 29853  98.4573 108.8753 0161599 220.9659 137.9272 13.93799673956773"}}, "geometry": {"type": "Point", "coordinates": [116.56910369996392, -38.43526433947262]}}, {"type": "Feature", "properties": {"norad_id": 29854, "name": "FENGYUN 1C DEB", "group": "fengyun-1c-debris", "lat": 26.372767871430163, "lon": -26.160160092153934, "alt_km": 980.3847084331355, "timestamp": "2025-12-14T07:33:19.749227+00:00", "meta": {"OBJECT_NAME": "FENGYUN 1C DEB", "OBJECT_ID": "1999-025EY", "EPOCH": "2025-12-13T10:15:30.060000", "MEAN_MOTION": 13.83342034, "ECCENTRICITY": 0.01473039, "INCLINATION": 98.9272, "RA_OF_ASC_NODE": 148.5279, "ARG_OF_PERICENTER": 48.9678, "MEAN_ANOMALY": 5.7946, "EPHEMERIS_TYPE": 0, "CLASSIFICATION_TYPE": "U", "NORAD_CAT_ID": 29854, "ELEMENT_SET_NO": 999, "REV_AT_EPOCH": 95353, "BSTAR": 0.00038330568, "MEAN_MOTION_DOT": 4.17e-06, "MEAN_MOTION_DDOT": 0}, "tle": {"line1": "1 29854U 99025EY  25347.42743125  .00000417  00000+0  38331-3 0  9994", "line2": "2 29854  98.9272 148.5279 0147303  48.9678   5.7946 13.83342034953530"}}, "geometry": {"type": "Point", "coordinates": [-26.160160092153934, 26.372767871430163]}}, {"type": "Feature", "properties": {"norad_id": 29855, "name": "FENGYUN 1C DEB", "group": "fengyun-1c-debris", "lat": 58.81267678667717, "lon": -83.89158971169581, "alt_km": 755.2189562702988, "timestamp": "2025-12-14T07:33:19.749237+00:00", "meta": {"OBJECT_NAME": "FENGYUN 1C DEB", "OBJECT_ID": "1999-025EZ", "EPOCH": "2025-12-13T09:34:40.141344", "MEAN_MOTION": 14.01591576, "ECCENTRICITY": 0.01839929, "INCLINATION": 98.1804, "RA_OF_ASC_NODE": 289.0333, "ARG_OF_PERICENTER": 44.3433, "MEAN_ANOMALY": 76.8876, "EPHEMERIS_TYPE": 0, "CLASSIFICATION_TYPE": "U", "NORAD_CAT_ID": 29855, "ELEMENT_SET_NO": 999, "REV_AT_EPOCH": 95721, "BSTAR": 0.0036504086, "MEAN_MOTION_DOT": 6.374e-05, "MEAN_MOTION_DDOT": 0}, "tle": {"line1": "1 29855U 99025EZ  25347.39907571  .00006374  00000+0  36504-2 0  9995", "line2": "2 29855  98.1804 289.0333 0183992  44.3433  76.8876 14.01591576957217"}}, "geometry": {"type": "Point", "coordinates": [-83.89158971169581, 58.81267678667717]}}, {"type": "Feature", "properties": {"norad_id": 29856, "name": "FENGYUN 1C DEB", "group": "fengyun-1c-debris", "lat": -39.574708935532534, "lon": -104.94152114839864, "alt_km": 680.5747440856458, "timestamp": "2025-12-14T07:33:19.749247+00:00", "meta": {"OBJECT_NAME": "FENGYUN 1C DEB", "OBJECT_ID": "1999-025FA", "EPOCH": "2025-12-13T05:53:30.843168", "MEAN_MOTION": 14.47773241, "ECCENTRICITY": 0.0262236, "INCLINATION": 98.6883, "RA_OF_ASC_NODE": 81.2196, "ARG_OF_PERICENTER": 296.349, "MEAN_ANOMALY": 116.4122, "EPHEMERIS_TYPE": 0, "CLASSIFICATION_TYPE": "U", "NORAD_CAT_ID": 29856, "ELEMENT_SET_NO": 999, "REV_AT_EPOCH": 96382, "BSTAR": 0.0041245077, "MEAN_MOTION_DOT": 0.00023565, "MEAN_MOTION_DDOT": 0}, "tle": {"line1": "1 29856U 99025FA  25347.24549587  .00023565  00000+0  41245-2 0  9998", "line2": "2 29856  98.6883  81.2196 0262236 296.3490 116.4122 14.47773241963820"}}, "geometry": {"type": "Point", "coordinates": [-104.94152114839864, -39.574708935532534]}}, {"type": "Feature", "properties": {"norad_id": 29857, "name": "FENGYUN 1C DEB", "group": "fengyun-1c-debris", "lat": 14.23018304709419, "lon": -6.67346279133998, "alt_km": 941.5284391967107, "timestamp": "2025-12-14T07:33:19.749257+00:00", "meta": {"OBJECT_NAME": "FENGYUN 1C DEB", "OBJECT_ID": "1999-025FB", "EPOCH": "2025-12-13T12:22:19.312320", "MEAN_MOTION": 13.81883687, "ECCENTRICITY": 0.01927988, "INCLINATION": 98.4233, "RA_OF_ASC_NODE": 354.7654, "ARG_OF_PERICENTER": 292.2867, "MEAN_ANOMALY": 65.7948, "EPHEMERIS_TYPE": 0, "CLASSIFICATION_TYPE": "U", "NORAD_CAT_ID": 29857, "ELEMENT_SET_NO": 999, "REV_AT_EPOCH": 94786, "BSTAR": 0.00219963, "MEAN_MOTION_DOT": 2.678e-05, "MEAN_MOTION_DDOT": 0}, "tle": {"line1": "1 29857U 99025FB  25347.51550130  .00002678  00000+0  21996-2 0  9998", "line2": "2 29857  98.4233 354.7654 0192798 292.2867  65.7948 13.81883687947864"}}, "geometry": {"type": "Point", "coordinates": [-6.67346279133998, 14.23018304709419]}}, {"type": "Feature", "properties": {"norad_id": 29858, "name": "FENGYUN 1C DEB", "group": "fengyun-1c-debris", "lat": -68.71042300682795, "lon": -114.71613752686243, "alt_km": 1122.2012778925036, "timestamp": "2025-12-14T07:33:19.749267+00:00", "meta": {"OBJECT_NAME": "FENGYUN 1C DEB", "OBJECT_ID": "1999-025FC", "EPOCH": "2025-12-13T12:59:43.442592", "MEAN_MOTION": 13.7779056, "ECCENTRICITY": 0.0198331, "INCLINATION": 99.2127, "RA_OF_ASC_NODE": 89.1459, "ARG_OF_PERICENTER": 62.2338, "MEAN_ANOMALY": 315.1264, "EPHEMERIS_TYPE": 0, "CLASSIFICATION_TYPE": "U", "NORAD_CAT_ID": 29858, "ELEMENT_SET_NO": 999, "REV_AT_EPOCH": 94565, "BSTAR": 0.0015859321, "MEAN_MOTION_DOT": 1.794e-05, "MEAN_MOTION_DDOT": 0}, "tle": {"line1": "1 29858U 99025FC  25347.54147503  .00001794  00000+0  15859-2 0  9997", "line2": "2 29858  99.2127  89.1459 0198331  62.2338 315.1264 13.77790560945655"}}, "geometry": {"type": "Point", "coordinates": [-114.71613752686243, -68.71042300682795]}}, {"type": "Feature", "properties": {"norad_id": 29859, "name": "FENGYUN 1C DEB", "group": "fengyun-1c-debris", "lat": 36.59468060241887, "lon": 9.082560077390111, "alt_km": 888.3024677128842, "timestamp": "2025-12-14T07:33:19.749277+00:00", "meta": {"OBJECT_NAME": "FENGYUN 1C DEB", "OBJECT_ID": "1999-025FD", "EPOCH": "2025-12-13T11:36:55.026144", "MEAN_MOTION": 13.74042566, "ECCENTRICITY": 0.0294951, "INCLINATION": 98.3357, "RA_OF_ASC_NODE": 182.1067, "ARG_OF_PERICENTER": 210.9635, "MEAN_ANOMALY": 147.3835, "EPHEMERIS_TYPE": 0, "CLASSIFICATION_TYPE": "U", "NORAD_CAT_ID": 29859, "ELEMENT_SET_NO": 999, "REV_AT_EPOCH": 93990, "BSTAR": 0.0038549927, "MEAN_MOTION_DOT": 4.925e-05, "MEAN_MOTION_DDOT": 0}, "tle": {"line1": "1 29859U 99025FD  25347.48397021  .00004925  00000+0  38550-2 0  9995", "line2": "2 29859  98.3357 182.1067 0294951 210.9635 147.3835 13.74042566939900"}}, "geometry": {"type": "Point", "coordinates": [9.082560077390111, 36.59468060241887]}}, {"type": "Feature", "properties": {"norad_id": 29860, "name": "FENGYUN 1C DEB", "group": "fengyun-1c-debris", "lat": -53.47161401755804, "lon": 33.896646416166426, "alt_km": 842.7026845630708, "timestamp": "2025-12-14T07:33:19.749287+00:00", "meta": {"OBJECT_NAME": "FENGYUN 1C DEB", "OBJECT_ID": "1999-025FE", "EPOCH": "2025-12-13T16:44:03.054048", "MEAN_MOTION": 13.77535053, "ECCENTRICITY": 0.02210229, "INCLINATION": 98.618, "RA_OF_ASC_NODE": 21.5221, "ARG_OF_PERICENTER": 340.6759, "MEAN_ANOMALY": 145.5324, "EPHEMERIS_TYPE": 0, "CLASSIFICATION_TYPE": "U", "NORAD_CAT_ID": 29860, "ELEMENT_SET_NO": 999, "REV_AT_EPOCH": 94152, "BSTAR": 0.0028829295, "MEAN_MOTION_DOT": 3.401e-05, "MEAN_MOTION_DDOT": 0}, "tle": {"line1": "1 29860U 99025FE  25347.69725757  .00003401  00000+0  28829-2 0  9997", "line2": "2 29860  98.6180  21.5221 0221022 340.6759 145.5324 13.77535053941529"}}, "geometry": {"type": "Point", "coordinates": [33.896646416166426, -53.47161401755804]}}, {"type": "Feature", "properties": {"norad_id": 29865, "name": "FENGYUN 1C DEB", "group": "fengyun-1c-debris", "lat": -78.14273899301985, "lon": -52.329339698222434, "alt_km": 691.7452894098087, "timestamp": "2025-12-14T07:33:19.749298+00:00", "meta": {"OBJECT_NAME": "FENGYUN 1C DEB", "OBJECT_ID": "1999-025FK", "EPOCH": "2025-12-13T08:09:51.664320", "MEAN_MOTION": 14.82611389, "ECCENTRICITY": 0.01163829, "INCLINATION": 98.9198, "RA_OF_ASC_NODE": 258.1628, "ARG_OF_PERICENTER": 139.4117, "MEAN_ANOMALY": 338.6658, "EPHEMERIS_TYPE": 0, "CLASSIFICATION_TYPE": "U", "NORAD_CAT_ID": 29865, "ELEMENT_SET_NO": 999, "REV_AT_EPOCH": 767, "BSTAR": 0.0011100957, "MEAN_MOTION_DOT": 0.00010004, "MEAN_MOTION_DDOT": 0}, "tle": {"line1": "1 29865U 99025FK  25347.34018130  .00010004  00000+0  11101-2 0  9996", "line2": "2 29865  98.9198 258.1628 0116382 139.4117 338.6658 14.82611389  7677"}}, "geometry": {"type": "Point", "coordinates": [-52.329339698222434, -78.14273899301985]}}, {"type": "Feature", "properties": {"norad_id": 29866, "name": "FENGYUN 1C DEB", "group": "fengyun-1c-debris", "lat": -54.72318990872587, "lon": -14.468338240321582, "alt_km": 695.0814672990928, "timestamp": "2025-12-14T07:33:19.749308+00:00", "meta": {"OBJECT_NAME": "FENGYUN 1C DEB", "OBJECT_ID": "1999-025FL", "EPOCH": "2025-12-13T12:42:14.052384", "MEAN_MOTION": 14.64217922, "ECCENTRICITY": 0.01943942, "INCLINATION": 98.0373, "RA_OF_ASC_NODE": 333.2431, "ARG_OF_PERICENTER": 212.3619, "MEAN_ANOMALY": 272.002, "EPHEMERIS_TYPE": 0, "CLASSIFICATION_TYPE": "U", "NORAD_CAT_ID": 29866, "ELEMENT_SET_NO": 999, "REV_AT_EPOCH": 338, "BSTAR": 0.00039352678, "MEAN_MOTION_DOT": 2.674e-05, "MEAN_MOTION_DDOT": 0}, "tle": {"line1": "1 29866U 99025FL  25347.52932931  .00002674  00000+0  39353-3 0  9995", "line2": "2 29866  98.0373 333.2431 0194394 212.3619 272.0020 14.64217922  3381"}}, "geometry": {"type": "Point", "coordinates": [-14.468338240321582, -54.72318990872587]}}]}